SatCatId,ObjectName,LaunchYear,OrbitalPeriod,LaunchMass,StatusCode,Inclination,Status,UcsData,OrbitClassEstimated,LaunchSiteCountry,Owner,UseType,Purpose,LaunchVehicleClass,TLE1,TLE2,MeanMotion,Eccentricity,OrbitClass
58236,STARLINK-30853,2023,95.84,-1.0,+,43.0,Active,0,LEO,USA,USA,Unknown,Unknown,Falcon,1 58236U 23171G   24138.37647235  .00004323  00000+0  33478-3 0  9992,2 58236  43.0021 279.6560 0001691 265.9350  94.1299 15.02550031 30243,15.02550031,0.0001691,LEO
58237,STARLINK-30866,2023,95.84,-1.0,+,43.0,Active,0,LEO,USA,USA,Unknown,Unknown,Falcon,1 58237U 23171H   24138.41298651  .00001896  00000+0  15540-3 0  9994,2 58237  43.0042 279.0670 0001180 265.4877  94.5830 15.02534026 30257,15.02534026,0.000118,LEO
58238,STARLINK-30817,2023,95.84,-1.0,+,43.0,Active,0,LEO,USA,USA,Unknown,Unknown,Falcon,1 58238U 23171J   24138.37980132  .00038057  00000+0  28164-2 0  9996,2 58238  43.0016 279.6775 0001204 270.3861  89.6843 15.02544762 30242,15.02544762,0.0001204,LEO
58239,STARLINK-30847,2023,95.84,-1.0,+,43.0,Active,0,LEO,USA,USA,Unknown,Unknown,Falcon,1 58239U 23171K   24138.51608358  .00017925  00000+0  13396-2 0  9992,2 58239  43.0002 278.9792 0002331 290.6788  69.3804 15.02507110 30286,15.0250711,0.0002331,LEO
58240,STARLINK-30848,2023,95.84,-1.0,+,43.0,Active,0,LEO,USA,USA,Unknown,Unknown,Falcon,1 58240U 23171L   24138.46428887 -.00002267  00000+0 -15287-3 0  9992,2 58240  43.0001 280.2792 0001682 253.0461 107.0197 15.02521275 30241,15.02521275,0.0001682,LEO
58241,STARLINK-30843,2023,95.84,-1.0,+,43.0,Active,0,LEO,USA,USA,Unknown,Unknown,Falcon,1 58241U 23171M   24138.38646638  .00015646  00000+0  11706-2 0  9994,2 58241  42.9981 279.7106 0000545 223.6389 136.4410 15.02538945 30266,15.02538945,5.45e-05,LEO
58242,STARLINK-30877,2023,95.84,-1.0,+,43.0,Active,0,LEO,USA,USA,Unknown,Unknown,Falcon,1 58242U 23171N   24138.54926930 -.00013012  00000+0 -95018-3 0  9995,2 58242  42.9989 278.3630 0001676 296.5292  63.5378 15.02525896 30275,15.02525896,0.0001676,LEO
58243,STARLINK-30864,2023,95.84,-1.0,+,42.99,Active,0,LEO,USA,USA,Unknown,Unknown,Falcon,1 58243U 23171P   24138.45948106 -.00005679  00000+0 -40582-3 0  9991,2 58243  43.0006 278.5608 0001025 291.4450  68.6282 15.02525399 30169,15.02525399,0.0001025,LEO
58244,STARLINK-30854,2023,95.78,-1.0,+,43.0,Active,0,LEO,USA,USA,Unknown,Unknown,Falcon,1 58244U 23171Q   24138.40394649  .00034505  00000+0  25000-2 0  9999,2 58244  43.0005 280.6989 0001686 256.4847 103.5807 15.03382778 30232,15.03382778,0.0001686,LEO
58245,STARLINK-30849,2023,95.84,-1.0,+,43.0,Active,0,LEO,USA,USA,Unknown,Unknown,Falcon,1 58245U 23171R   24138.46281074  .00003752  00000+0  29258-3 0  9993,2 58245  43.0060 278.5838 0002027 265.1094  94.9517 15.02547130 30262,15.0254713,0.0002027,LEO
58246,STARLINK-30886,2023,95.84,-1.0,+,43.0,Active,0,LEO,USA,USA,Unknown,Unknown,Falcon,1 58246U 23171S   24138.40299128  .00007649  00000+0  58039-3 0  9995,2 58246  42.9990 278.9919 0000757 285.9391  74.1368 15.02552394 30256,15.02552394,7.57e-05,LEO
58247,STARLINK-30850,2023,95.84,-1.0,+,43.0,Active,0,LEO,USA,USA,Unknown,Unknown,Falcon,1 58247U 23171T   24138.53262471 -.00001346  00000+0 -84566-4 0  9996,2 58247  43.0037 278.2464 0001564 243.9236 116.1446 15.02531179 30272,15.02531179,0.0001564,LEO
58248,STARLINK-30823,2023,95.84,-1.0,+,43.0,Active,0,LEO,USA,USA,Unknown,Unknown,Falcon,1 58248U 23171U   24138.40632928  .00002463  00000+0  19734-3 0  9994,2 58248  43.0014 279.0139 0001567 259.2999 100.7667 15.02539801 30257,15.02539801,0.0001567,LEO
58249,STARLINK-30873,2023,95.84,-1.0,+,43.0,Active,0,LEO,USA,USA,Unknown,Unknown,Falcon,1 58249U 23171V   24138.40967448 -.00012283  00000+0 -89693-3 0  9997,2 58249  43.0002 279.0393 0001383 268.1242  91.9442 15.02489035 30258,15.02489035,0.0001383,LEO
58250,STARLINK-30808,2023,95.84,-1.0,+,43.0,Active,0,LEO,USA,USA,Unknown,Unknown,Falcon,1 58250U 23171W   24138.37126880  .00023435  00000+0  17421-2 0  9990,2 58250  43.0003 281.2942 0001402 266.2319  93.8363 15.02578294 30228,15.02578294,0.0001402,LEO
58251,STARLINK-30881,2023,95.84,-1.0,+,43.0,Active,0,LEO,USA,USA,Unknown,Unknown,Falcon,1 58251U 23171X   24138.52275679 -.00007709  00000+0 -55679-3 0  9995,2 58251  43.0011 278.9401 0001495 256.2480 103.8196 15.02499851 30262,15.02499851,0.0001495,LEO
58252,STARLINK-30883,2023,95.84,-1.0,+,43.0,Active,0,LEO,USA,USA,Unknown,Unknown,Falcon,1 58252U 23171Y   24138.55260196 -.00021388  00000+0 -15745-2 0  9995,2 58252  43.0024 278.3859 0001879 248.6545 111.4097 15.02500288 30274,15.02500288,0.0001879,LEO
58253,CHINASAT 6E (ZX 6E),2023,1436.15,-1.0,+,0.01,Active,0,GSO,PRC,China,Unknown,Unknown,Unknown,1 58253U 23172A   24138.47132709 -.00000355  00000+0  00000+0 0  9991,2 58253   0.0111 339.0563 0003575  98.4428  83.3052  1.00275882  2031,1.00275882,0.0003575,GEO
58256,CONNECTA T3.1,2023,94.84,-1.0,+,97.45,Active,0,LEO,USA,Turkey,Unknown,Unknown,Unknown,1 58256U 23174A   24138.46222550  .00018835  00000+0  91597-3 0  9995,2 58256  97.4547 213.2282 0008569 356.7852   3.3325 15.18424072 29032,15.18424072,0.0008569,LEO
58257,MANTIS,2023,94.68,-1.0,+,97.46,Active,0,LEO,USA,UK,Unknown,Unknown,Unknown,1 58257U 23174B   24138.54212315  .00033400  00000+0  15004-2 0  9996,2 58257  97.4561 213.6192 0010269   0.6155 359.5091 15.21032126 29062,15.21032126,0.0010269,LEO
58258,ORBASTRO-PC-1,2023,94.92,-1.0,+,97.45,Active,0,LEO,USA,UK,Unknown,Unknown,Unknown,1 58258U 23174C   24138.54743001  .00015817  00000+0  80025-3 0  9996,2 58258  97.4530 213.0891 0011389   3.7451 356.3866 15.17054158 29032,15.17054158,0.0011389,LEO
58259,LEMUR-2-BASS,2023,94.9,-1.0,+,97.45,Active,0,LEO,USA,USA,Unknown,Unknown,Unknown,1 58259U 23174D   24138.46134036  .00016786  00000+0  84117-3 0  9992,2 58259  97.4540 213.0647 0011218   1.4849 358.6415 15.17379278 29027,15.17379278,0.0011218,LEO
58260,LEMUR-2-DILIGHTFUL,2023,94.68,-1.0,+,97.46,Active,0,LEO,USA,USA,Unknown,Unknown,Unknown,1 58260U 23174E   24138.16000648  .00029518  00000+0  13321-2 0  9997,2 58260  97.4595 213.3119 0009696 356.5873   3.5294 15.20906841 29009,15.20906841,0.0009696,LEO
58261,VERONIKA,2023,94.75,-1.0,+,97.46,Active,0,LEO,USA,Czech Republic,Unknown,Unknown,Unknown,1 58261U 23174F   24138.46289905  .00027063  00000+0  12589-2 0  9994,2 58261  97.4614 213.5567 0011418 356.3578   3.7571 15.19865210 29042,15.1986521,0.0011418,LEO
58262,PLATERO,2023,94.76,-1.0,+,97.46,Active,0,LEO,USA,Spain,Unknown,Unknown,Unknown,1 58262U 23174G   24138.21476387  .00028335  00000+0  13211-2 0  9996,2 58262  97.4605 213.2359 0010724 354.6820   5.4299 15.19783001 29008,15.19783001,0.0010724,LEO
58263,LEMUR-2-GOOD-VIBES,2023,94.68,-1.0,+,97.45,Active,0,LEO,USA,USA,Unknown,Unknown,Unknown,1 58263U 23174H   24138.48984505  .00022125  00000+0  10007-2 0  9993,2 58263  97.4538 213.4966 0009185   1.2951 358.8307 15.20895044 29052,15.20895044,0.0009185,LEO
58264,BRO-11,2023,94.93,-1.0,+,97.46,Active,0,LEO,USA,France,Unknown,Unknown,Unknown,1 58264U 23174J   24138.50523037  .00006589  00000+0  33737-3 0  9998,2 58264  97.4647 213.4119 0012578   3.0874 357.0434 15.16871533 29030,15.16871533,0.0012578,LEO
58265,PEARL 1H,2023,94.91,-1.0,+,97.45,Active,0,LEO,USA,Taiwan,Unknown,Unknown,Unknown,1 58265U 23174K   24138.55546981  .00022279  00000+0  11166-2 0  9992,2 58265  97.4505 213.0126 0009296   2.0878 358.0393 15.17330351 29038,15.17330351,0.0009296,LEO
58266,DJIBOUTI-1A,2023,94.75,-1.0,+,97.46,Active,0,LEO,USA,Republic of Djibouti,Unknown,Unknown,Unknown,1 58266U 23174L   24138.44622036  .00027415  00000+0  12728-2 0  9999,2 58266  97.4633 213.6321 0011432 352.0227   8.0824 15.19929273 29046,15.19929273,0.0011432,LEO
58267,LEMUR-2-SANITA-VETRA,2023,94.72,-1.0,+,97.45,Active,0,LEO,USA,USA,Unknown,Unknown,Unknown,1 58267U 23174M   24138.48419634  .00034680  00000+0  15858-2 0  9991,2 58267  97.4533 213.4688 0009034 357.3115   2.8070 15.20423387 29052,15.20423387,0.0009034,LEO
58268,CONNECTA T3.2,2023,94.84,-1.0,+,97.46,Active,0,LEO,USA,Turkey,Unknown,Unknown,Unknown,1 58268U 23174N   24138.45922234  .00018980  00000+0  92214-3 0  9991,2 58268  97.4565 213.2799 0010293   2.0576 358.0699 15.18442385 29030,15.18442385,0.0010293,LEO
58269,IRIS-C2,2023,94.73,-1.0,+,97.46,Active,0,LEO,USA,Taiwan,Unknown,Unknown,Unknown,1 58269U 23174P   24138.55902787  .00028918  00000+0  13350-2 0  9999,2 58269  97.4606 213.7229 0010309 350.5627   9.5413 15.20124474 29060,15.20124474,0.0010309,LEO
58270,FLOCK 4Q-1,2023,94.79,-1.0,+,97.46,Active,0,LEO,USA,USA,Unknown,Unknown,Unknown,1 58270U 23174Q   24138.46620395  .00014435  00000+0  68851-3 0  9999,2 58270  97.4598 213.5159 0010141 357.0802   3.0371 15.19145555 29044,15.19145555,0.0010141,LEO
58271,FLOCK 4Q-16,2023,94.81,-1.0,+,97.46,Active,0,LEO,USA,USA,Unknown,Unknown,Unknown,1 58271U 23174R   24138.15423726  .00015554  00000+0  74620-3 0  9999,2 58271  97.4564 213.0863 0010108 357.9613   2.1578 15.18928033 28998,15.18928033,0.0010108,LEO
58272,TIGER-6,2023,94.82,-1.0,+,97.46,Active,0,LEO,USA,Rwanda,Unknown,Unknown,Unknown,1 58272U 23174S   24138.15729443  .00020815  00000+0  10030-2 0  9995,2 58272  97.4573 213.0928 0007883 353.7653   6.3482 15.18728631 28997,15.18728631,0.0007883,LEO
58273,FLOCK 4Q-11,2023,94.8,-1.0,+,97.46,Active,0,LEO,USA,USA,Unknown,Unknown,Unknown,1 58273U 23174T   24138.14855825  .00014962  00000+0  71741-3 0  9992,2 58273  97.4594 213.1533 0009957 358.3460   1.7739 15.18956135 28991,15.18956135,0.0009957,LEO
58274,FLOCK 4Q-36,2023,94.78,-1.0,+,97.46,Active,0,LEO,USA,USA,Unknown,Unknown,Unknown,1 58274U 23174U   24138.17272819  .00016629  00000+0  78850-3 0  9992,2 58274  97.4599 213.2966 0009103 351.7802   8.3282 15.19327812 29002,15.19327812,0.0009103,LEO
58275,FLOCK 4Q-12,2023,94.76,-1.0,+,97.46,Active,0,LEO,USA,USA,Unknown,Unknown,Unknown,1 58275U 23174V   24138.16248867  .00020447  00000+0  96028-3 0  9998,2 58275  97.4554 213.2054 0008976 357.3528   2.7658 15.19615752 29004,15.19615752,0.0008976,LEO
